NORAD_CAT_ID,OBJECT_NAME,OBJECT_TYPE,EPOCH,MEAN_MOTION,ECCENTRICITY,INCLINATION,RA_OF_ASC_NODE,ARG_OF_PERICENTER,MEAN_ANOMALY,BSTAR,MEAN_MOTION_DOT,MEAN_MOTION_DDOT,TLE_LINE0,TLE_LINE1,TLE_LINE2,SEMIMAJOR_AXIS,PERIOD,APOGEE,PERIGEE,DECAYED
53174.0,STARLINK-4205,PAYLOAD,2023-09-28 20:14:08,15.08832248,0.0001196,53.2164,222.2646,97.9343,262.1784,0.00024101,3.549e-05,0.0,0 STARLINK-4205,1 53174U 22083AU  23271.84314910  .00003549  00000-0  24101-3 0  9992,2 53174  53.2164 222.2646 0001196  97.9343 262.1784 15.08832248 66428,6917.904,95.438,540.596,538.942,0.0
53174.0,STARLINK-4205,PAYLOAD,2023-09-29 05:46:26,15.08846873,0.0001319,53.2151,220.4815,109.8665,250.2469,0.00034889,5.27e-05,0.0,0 STARLINK-4205,1 53174U 22083AU  23272.24058408  .00005270  00000-0  34889-3 0  9991,2 53174  53.2151 220.4815 0001319 109.8665 250.2469 15.08846873 67124,6917.859,95.437,540.637,538.812,0.0
53174.0,STARLINK-4205,PAYLOAD,2023-09-30 04:01:49,15.08868142,0.0001195,53.215,216.3197,97.2646,262.8482,0.00074119,0.00011537,0.0,0 STARLINK-4205,1 53174U 22083AU  23273.16793609  .00011537  00000-0  74119-3 0  9995,2 53174  53.2150 216.3197 0001195  97.2646 262.8482 15.08868142 66622,6917.794,95.436,540.486,538.833,0.0
53174.0,STARLINK-4205,PAYLOAD,2023-09-30 05:37:12,15.08874993,0.0001238,53.2152,216.0211,103.9249,256.1881,0.00099485,0.00015596,0.0,0 STARLINK-4205,1 53174U 22083AU  23273.23417395  .00015596  00000-0  99485-3 0  9990,2 53174  53.2152 216.0211 0001238 103.9249 256.1881 15.08874993 67272,6917.773,95.435,540.495,538.782,0.0
53174.0,STARLINK-4205,PAYLOAD,2023-10-01 02:17:14,15.08832354,0.0001207,53.2154,212.1558,86.5364,273.5767,-8.1475e-05,-1.584e-05,0.0,0 STARLINK-4205,1 53174U 22083AU  23274.09530633 -.00001584  00000-0 -81475-4 0  9991,2 53174  53.2154 212.1558 0001207  86.5364 273.5767 15.08832354 67401,6917.904,95.438,540.604,538.934,0.0
53174.0,STARLINK-4205,PAYLOAD,2023-10-01 13:24:56,15.08840942,0.0001275,53.2153,210.0734,92.1292,267.9846,0.0003954,6.011e-05,0.0,0 STARLINK-4205,1 53174U 22083AU  23274.55898714  .00006011  00000-0  39540-3 0  9992,2 53174  53.2153 210.0734 0001275  92.1292 267.9846 15.08840942 66834,6917.878,95.437,540.625,538.86,0.0
53174.0,STARLINK-4205,PAYLOAD,2023-10-02 06:54:10,15.08872344,0.0001221,53.2152,206.8031,95.9123,264.2008,0.0013657,0.00021533,0.0,0 STARLINK-4205,1 53174U 22083AU  23275.28762093  .00021533  00000-0  13657-2 0  9999,2 53174  53.2152 206.8031 0001221  95.9123 264.2008 15.08872344 67585,6917.782,95.436,540.491,538.802,0.0
53174.0,STARLINK-4205,PAYLOAD,2023-10-02 19:37:16,15.08844825,0.0001422,53.2154,204.4241,102.3049,257.8103,0.00024299,3.582e-05,0.0,0 STARLINK-4205,1 53174U 22083AU  23275.81754643  .00003582  00000-0  24299-3 0  9999,2 53174  53.2154 204.4241 0001422 102.3049 257.8103 15.08844825 67663,6917.866,95.437,540.714,538.747,0.0
53174.0,STARLINK-4205,PAYLOAD,2023-10-03 01:58:48,15.08848709,0.0001415,53.2152,203.2338,105.7229,254.3919,0.0011243,0.00017655,0.0,0 STARLINK-4205,1 53174U 22083AU  23276.08250614  .00017655  00000-0  11243-2 0  9998,2 53174  53.2152 203.2338 0001415 105.7229 254.3919 15.08848709 67060,6917.854,95.437,540.698,538.74,0.0
53174.0,STARLINK-4205,PAYLOAD,2023-10-03 22:38:49,15.08848242,0.0001432,53.2157,199.3697,101.4021,258.7132,0.0016443,0.00025984,0.0,0 STARLINK-4205,1 53174U 22083AU  23276.94363243  .00025984  00000-0  16443-2 0  9997,2 53174  53.2157 199.3697 0001432 101.4021 258.7132 15.08848242 67191,6917.855,95.437,540.711,538.73,0.0
53174.0,STARLINK-4205,PAYLOAD,2023-10-04 11:21:54,15.08858282,0.0001079,53.2155,196.9913,88.6176,271.494,0.0015523,0.00024516,0.0,0 STARLINK-4205,1 53174U 22083AU  23277.47355055  .00024516  00000-0  15523-2 0  9996,2 53174  53.2155 196.9913 0001079  88.6176 271.4940 15.08858282 67270,6917.825,95.436,540.436,538.943,0.0
53174.0,STARLINK-4205,PAYLOAD,2023-10-04 19:18:50,15.08840776,0.0001847,53.2168,195.5045,102.69,257.4298,0.00073441,0.0001142,0.0,0 STARLINK-4205,1 53174U 22083AU  23277.80475299  .00011420  00000-0  73441-3 0  9990,2 53174  53.2168 195.5045 0001847 102.6900 257.4298 15.08840776 67965,6917.878,95.438,541.021,538.465,0.0
53174.0,STARLINK-4205,PAYLOAD,2023-10-05 04:51:08,15.0887935,0.0001295,53.2156,193.7201,91.087,269.0271,0.0023134,0.00036762,0.0,0 STARLINK-4205,1 53174U 22083AU  23278.20218537  .00036762  00000-0  23134-2 0  9994,2 53174  53.2156 193.7201 0001295  91.0870 269.0271 15.08879350 68028,6917.76,95.435,540.521,538.729,0.0
53174.0,STARLINK-4205,PAYLOAD,2023-10-05 11:12:41,15.08864866,0.00017,53.2146,192.5278,76.8059,283.3122,0.00098056,0.00015363,0.0,0 STARLINK-4205,1 53174U 22083AU  23278.46714646  .00015363  00000-0  98056-3 0  9994,2 53174  53.2146 192.5278 0001700  76.8059 283.3122 15.08864866 67422,6917.804,95.436,540.845,538.493,0.0
53174.0,STARLINK-4205,PAYLOAD,2023-10-05 22:20:23,15.08840708,0.000188,53.2169,190.455,94.9971,265.1236,0.00048111,7.377e-05,0.0,0 STARLINK-4205,1 53174U 22083AU  23278.93083000  .00007377  00000-0  48111-3 0  9992,2 53174  53.2169 190.4550 0001880  94.9971 265.1236 15.08840708 67490,6917.878,95.438,541.044,538.443,0.0
53174.0,STARLINK-4205,PAYLOAD,2023-10-06 01:31:09,15.08848587,0.0001718,53.2161,189.8579,92.5311,267.5877,0.00038658,5.871e-05,0.0,0 STARLINK-4205,1 53174U 22083AU  23279.06330789  .00005871  00000-0  38658-3 0  9998,2 53174  53.2161 189.8579 0001718  92.5311 267.5877 15.08848587 68151,6917.854,95.437,540.908,538.531,0.0
53174.0,STARLINK-4205,PAYLOAD,2023-10-06 11:03:29,15.08830415,0.0001583,53.2152,188.0705,88.9067,271.2106,0.00034269,5.169e-05,0.0,0 STARLINK-4205,1 53174U 22083AU  23279.46075676  .00005169  00000-0  34269-3 0  9997,2 53174  53.2152 188.0705 0001583  88.9067 271.2106 15.08830415 67573,6917.91,95.438,540.87,538.68,0.0
53174.0,STARLINK-4205,PAYLOAD,2023-10-06 22:11:12,15.08817501,0.0001446,53.2148,185.9887,93.0258,267.09,0.0015169,0.00023921,0.0,0 STARLINK-4205,1 53174U 22083AU  23279.92444806  .00023921  00000-0  15169-2 0  9996,2 53174  53.2148 185.9887 0001446  93.0258 267.0900 15.08817501 67646,6917.949,95.439,540.814,538.814,0.0
53174.0,STARLINK-4205,PAYLOAD,2023-10-07 01:21:58,15.08826505,0.0001404,53.2146,185.3939,95.9202,264.195,0.0024583,0.00039038,0.0,0 STARLINK-4205,1 53174U 22083AU  23280.05693055  .00039038  00000-0  24583-2 0  9990,2 53174  53.2146 185.3939 0001404  95.9202 264.1950 15.08826505 68301,6917.922,95.438,540.758,538.815,0.0
53174.0,STARLINK-4205,PAYLOAD,2023-10-07 10:54:17,15.08846713,0.0001479,53.2148,183.6096,94.4733,265.6428,0.0021203,0.00033624,0.0,0 STARLINK-4205,1 53174U 22083AU  23280.45437252  .00033624  00000-0  21203-2 0  9990,2 53174  53.2148 183.6096 0001479  94.4733 265.6428 15.08846713 67727,6917.86,95.437,540.748,538.702,0.0
53174.0,STARLINK-4205,PAYLOAD,2023-10-07 17:15:50,15.08864274,0.0001478,53.2148,182.4201,95.108,265.0081,0.0020705,0.0003284,0.0,0 STARLINK-4205,1 53174U 22083AU  23280.71932957  .00032840  00000-0  20705-2 0  9996,2 53174  53.2148 182.4201 0001478  95.1080 265.0081 15.08864274 68401,6917.806,95.436,540.694,538.649,0.0
53174.0,STARLINK-4205,PAYLOAD,2023-10-07 22:01:59,15.08875366,0.000155,53.215,181.5295,92.0645,268.0525,0.0018976,0.00030071,0.0,0 STARLINK-4205,1 53174U 22083AU  23280.91804560  .00030071  00000-0  18976-2 0  9997,2 53174  53.2150 181.5295 0001550  92.0645 268.0525 15.08875366 67792,6917.772,95.435,540.71,538.565,0.0
53174.0,STARLINK-4205,PAYLOAD,2023-10-08 02:48:07,15.08894382,0.0001437,53.2144,180.636,96.3073,263.8083,0.0023319,0.00037075,0.0,0 STARLINK-4205,1 53174U 22083AU  23281.11675855  .00037075  00000-0  23319-2 0  9991,2 53174  53.2144 180.6360 0001437  96.3073 263.8083 15.08894382 67829,6917.714,95.434,540.573,538.585,0.0
53174.0,STARLINK-4205,PAYLOAD,2023-10-08 23:28:08,15.08873903,0.0001302,53.215,176.7702,78.2178,281.896,0.0019823,0.00031431,0.0,0 STARLINK-4205,1 53174U 22083AU  23281.97787392  .00031431  00000-0  19823-2 0  9990,2 53174  53.2150 176.7702 0001302  78.2178 281.8960 15.08873903 68593,6917.777,95.435,540.542,538.741,0.0
53174.0,STARLINK-4205,PAYLOAD,2023-10-09 10:35:50,15.08842827,0.0001543,53.2154,174.6892,85.1072,275.0096,0.003215,0.00051255,0.0,0 STARLINK-4205,1 53174U 22083AU  23282.44155269  .00051255  00000-0  32150-2 0  9999,2 53174  53.2154 174.6892 0001543  85.1072 275.0096 15.08842827 68025,6917.872,95.437,540.804,538.669,0.0
53174.0,STARLINK-4205,PAYLOAD,2023-10-09 21:43:32,15.08846815,0.0001287,53.2157,172.607,100.9294,259.1843,0.0019645,0.00031121,0.0,0 STARLINK-4205,1 53174U 22083AU  23282.90523488  .00031121  00000-0  19645-2 0  9996,2 53174  53.2157 172.6070 0001287 100.9294 259.1843 15.08846815 68092,6917.86,95.437,540.615,538.834,0.0
53174.0,STARLINK-4205,PAYLOAD,2023-10-09 23:18:55,15.08846952,0.0001405,53.2158,172.3091,104.8642,255.2505,0.0020523,0.00032532,0.0,0 STARLINK-4205,1 53174U 22083AU  23282.97147542  .00032532  00000-0  20523-2 0  9990,2 53174  53.2158 172.3091 0001405 104.8642 255.2505 15.08846952 68741,6917.859,95.437,540.696,538.752,0.0
53174.0,STARLINK-4205,PAYLOAD,2023-10-10 21:34:19,15.08854037,0.0001558,53.216,168.1461,117.4811,242.634,0.0014007,0.00022083,0.0,0 STARLINK-4205,1 53174U 22083AU  23283.89883855  .00022083  00000-0  14007-2 0  9996,2 53174  53.2160 168.1461 0001558 117.4811 242.6340 15.08854037 68240,6917.837,95.437,540.78,538.625,0.0
53174.0,STARLINK-4205,PAYLOAD,2023-10-10 23:09:42,15.08849176,0.0001436,53.2159,167.8491,106.2888,253.8262,0.0010724,0.00016825,0.0,0 STARLINK-4205,1 53174U 22083AU  23283.96507920  .00016825  00000-0  10724-2 0  9999,2 53174  53.2159 167.8491 0001436 106.2888 253.8262 15.08849176 68898,6917.852,95.437,540.711,538.724,0.0
53174.0,STARLINK-4205,PAYLOAD,2023-10-12 02:11:16,15.08850052,0.0001499,53.216,162.7937,90.9404,269.176,0.0011797,0.00018542,0.0,0 STARLINK-4205,1 53174U 22083AU  23285.09116386  .00018542  00000-0  11797-2 0  9996,2 53174  53.2160 162.7937 0001499  90.9404 269.1760 15.08850052 69069,6917.85,95.437,540.752,538.678,0.0
